CORVUS BC4              
1 43767U 18099K   26068.65923737  .00005714  00000+0  33980-3 0  9990
2 43767  97.4206 114.5457 0008046 356.5821   3.5354 15.11615710397368
STARLINK-4517           
1 53390U 22097C   26068.45478937 -.00000431  00000+0 -89938-5 0  9990
2 53390  53.2169 125.1760 0001338  95.9433 264.1712 15.08837888198780
